start=new Date('2022-01-01T00:00:00.000Z').valueOf();
sats=[{"FILE":"3255242","MEAN_MOTION":"15.69754690","CLASSIFICATION_TYPE":"U","RCS_SIZE":"LARGE","MEAN_MOTION_DDOT":"0.0000000000000","ECCENTRICITY":"0.00032480","EPHEMERIS_TYPE":"0","SITE":"AFWTR","INCLINATION":"69.9980","OBJECT_TYPE":"PAYLOAD","REF_FRAME":"TEME","ARG_OF_PERICENTER":"274.8144","CENTER_NAME":"EARTH","PERIAPSIS":"357.412","RA_OF_ASC_NODE":"181.9602","EPOCH":"2021-12-31T13:40:14.392992","TIME_SYSTEM":"UTC","BSTAR":"0.00017903000000","TLE_LINE1":"1 49172U 21082AU  21365.56961103  .00021218  00000-0  17903-3 0  9991","GP_ID":"192821505","SEMIMAJOR_AXIS":"6737.736","PERIOD":"91.734","REV_AT_EPOCH":"1712","MEAN_ANOMALY":"85.2680","OBJECT_ID":"2021-082AU","COUNTRY_CODE":"US","ELEMENT_SET_NO":"999","APOAPSIS":"361.789","OBJECT_NAME":"STARLINK-3091","NORAD_CAT_ID":"49172","TLE_LINE2":"2 49172  69.9980 181.9602 0003248 274.8144  85.2680 15.69754690 17122","MEAN_ELEMENT_THEORY":"SGP4","DECAY_DATE":null,"MEAN_MOTION_DOT":"0.00021218","LAUNCH_DATE":"2021-09-14"},{"MEAN_MOTION":"15.69765187","FILE":"3255242","MEAN_MOTION_DDOT":"0.0000000000000","ECCENTRICITY":"0.00033280","RCS_SIZE":"LARGE","CLASSIFICATION_TYPE":"U","EPHEMERIS_TYPE":"0","INCLINATION":"69.9973","SITE":"AFWTR","REF_FRAME":"TEME","ARG_OF_PERICENTER":"264.3018","OBJECT_TYPE":"PAYLOAD","CENTER_NAME":"EARTH","PERIAPSIS":"357.329","RA_OF_ASC_NODE":"181.6033","EPOCH":"2021-12-31T14:04:04.921248","TIME_SYSTEM":"UTC","PERIOD":"91.733","SEMIMAJOR_AXIS":"6737.706","BSTAR":"0.00014702000000","TLE_LINE1":"1 49173U 21082AV  21365.58616807  .00017386  00000-0  14702-3 0  9997","GP_ID":"192821742","MEAN_ANOMALY":"95.7799","REV_AT_EPOCH":"1713","ELEMENT_SET_NO":"999","COUNTRY_CODE":"US","OBJECT_ID":"2021-082AV","APOAPSIS":"361.813","OBJECT_NAME":"STARLINK-3045","NORAD_CAT_ID":"49173","MEAN_MOTION_DOT":"0.00017386","DECAY_DATE":null,"LAUNCH_DATE":"2021-09-14","TLE_LINE2":"2 49173  69.9973 181.6033 0003328 264.3018  95.7799 15.69765187 17134","MEAN_ELEMENT_THEORY":"SGP4"},{"RA_OF_ASC_NODE":"181.9688","PERIAPSIS":"357.281","CENTER_NAME":"EARTH","ARG_OF_PERICENTER":"256.8109","REF_FRAME":"TEME","OBJECT_TYPE":"PAYLOAD","INCLINATION":"69.9963","SITE":"AFWTR","EPHEMERIS_TYPE":"0","RCS_SIZE":"LARGE","MEAN_MOTION_DDOT":"0.0000000000000","ECCENTRICITY":"0.00035590","CLASSIFICATION_TYPE":"U","MEAN_MOTION":"15.69727274","FILE":"3255242","DECAY_DATE":null,"MEAN_MOTION_DOT":"-0.00005998","LAUNCH_DATE":"2021-09-14","TLE_LINE2":"2 49174  69.9963 181.9688 0003559 256.8109 103.2690 15.69727274 18294","MEAN_ELEMENT_THEORY":"SGP4","NORAD_CAT_ID":"49174","APOAPSIS":"362.077","OBJECT_NAME":"STARLINK-3047","ELEMENT_SET_NO":"999","OBJECT_ID":"2021-082AW","COUNTRY_CODE":"US","REV_AT_EPOCH":"1829","MEAN_ANOMALY":"103.2690","PERIOD":"91.736","TLE_LINE1":"1 49174U 21082AW  21365.57034677 -.00005998  00000-0 -48542-4 0  9994","GP_ID":"192820504","BSTAR":"-0.00004854200000","SEMIMAJOR_AXIS":"6737.814","TIME_SYSTEM":"UTC","EPOCH":"2021-12-31T13:41:17.960928"},{"EPHEMERIS_TYPE":"0","MEAN_MOTION_DDOT":"0.0000000000000","ECCENTRICITY":"0.00035790","RCS_SIZE":"LARGE","CLASSIFICATION_TYPE":"U","MEAN_MOTION":"15.69765711","FILE":"3255242","PERIAPSIS":"357.158","RA_OF_ASC_NODE":"181.9596","CENTER_NAME":"EARTH","REF_FRAME":"TEME","ARG_OF_PERICENTER":"275.5940","OBJECT_TYPE":"PAYLOAD","INCLINATION":"69.9965","SITE":"AFWTR","MEAN_ANOMALY":"84.4847","REV_AT_EPOCH":"1712","PERIOD":"91.733","SEMIMAJOR_AXIS":"6737.704","TLE_LINE1":"1 49175U 21082AX  21365.56923330  .00025245  00000-0  21246-3 0  9993","GP_ID":"192820754","BSTAR":"0.00021246000000","TIME_SYSTEM":"UTC","EPOCH":"2021-12-31T13:39:41.757120","MEAN_MOTION_DOT":"0.00025245","DECAY_DATE":null,"LAUNCH_DATE":"2021-09-14","MEAN_ELEMENT_THEORY":"SGP4","TLE_LINE2":"2 49175  69.9965 181.9596 0003579 275.5940  84.4847 15.69765711 17121","NORAD_CAT_ID":"49175","APOAPSIS":"361.981","OBJECT_NAME":"STARLINK-3087","ELEMENT_SET_NO":"999","COUNTRY_CODE":"US","OBJECT_ID":"2021-082AX"},{"TLE_LINE2":"2 49176  69.9977 181.9508 0003187 273.5861  86.4970 15.69758694 17124","MEAN_ELEMENT_THEORY":"SGP4","MEAN_MOTION_DOT":"0.00017570","DECAY_DATE":null,"LAUNCH_DATE":"2021-09-14","NORAD_CAT_ID":"49176","OBJECT_NAME":"STARLINK-3069","APOAPSIS":"361.737","OBJECT_ID":"2021-082AY","COUNTRY_CODE":"US","ELEMENT_SET_NO":"999","REV_AT_EPOCH":"1712","MEAN_ANOMALY":"86.4970","BSTAR":"0.00014860000000","TLE_LINE1":"1 49176U 21082AY  21365.56772675  .00017570  00000-0  14860-3 0  9994","GP_ID":"192822005","SEMIMAJOR_AXIS":"6737.724","PERIOD":"91.734","TIME_SYSTEM":"UTC","EPOCH":"2021-12-31T13:37:31.591200","PERIAPSIS":"357.442","RA_OF_ASC_NODE":"181.9508","CENTER_NAME":"EARTH","OBJECT_TYPE":"PAYLOAD","ARG_OF_PERICENTER":"273.5861","REF_FRAME":"TEME","SITE":"AFWTR","INCLINATION":"69.9977","EPHEMERIS_TYPE":"0","CLASSIFICATION_TYPE":"U","RCS_SIZE":"LARGE","MEAN_MOTION_DDOT":"0.0000000000000","ECCENTRICITY":"0.00031870","FILE":"3255242","MEAN_MOTION":"15.69758694"},{"EPOCH":"2021-12-31T13:39:08.750592","TIME_SYSTEM":"UTC","PERIOD":"91.734","TLE_LINE1":"1 49177U 21082AZ  21365.56885128  .00013967  00000-0  11851-3 0  9996","BSTAR":"0.00011851000000","GP_ID":"192822243","SEMIMAJOR_AXIS":"6737.714","REV_AT_EPOCH":"1832","MEAN_ANOMALY":"91.0926","ELEMENT_SET_NO":"999","OBJECT_ID":"2021-082AZ","COUNTRY_CODE":"US","OBJECT_NAME":"STARLINK-3103","APOAPSIS":"362.035","NORAD_CAT_ID":"49177","MEAN_MOTION_DOT":"0.00013967","DECAY_DATE":null,"LAUNCH_DATE":"2021-09-14","TLE_LINE2":"2 49177  69.9990 181.9566 0003646 268.9852  91.0926 15.69762443 18325","MEAN_ELEMENT_THEORY":"SGP4","MEAN_MOTION":"15.69762443","FILE":"3255242","RCS_SIZE":"LARGE","MEAN_MOTION_DDOT":"0.0000000000000","ECCENTRICITY":"0.00036460","CLASSIFICATION_TYPE":"U","EPHEMERIS_TYPE":"0","INCLINATION":"69.9990","SITE":"AFWTR","ARG_OF_PERICENTER":"268.9852","REF_FRAME":"TEME","OBJECT_TYPE":"PAYLOAD","CENTER_NAME":"EARTH","RA_OF_ASC_NODE":"181.9566","PERIAPSIS":"357.122"},{"RA_OF_ASC_NODE":"189.8107","PERIAPSIS":"562.810","CENTER_NAME":"EARTH","OBJECT_TYPE":"PAYLOAD","ARG_OF_PERICENTER":"277.8821","REF_FRAME":"TEME","SITE":"AFWTR","INCLINATION":"69.9945","EPHEMERIS_TYPE":"0","CLASSIFICATION_TYPE":"U","RCS_SIZE":"LARGE","MEAN_MOTION_DDOT":"0.0000000000000","ECCENTRICITY":"0.00034760","FILE":"3255242","MEAN_MOTION":"15.00542871","TLE_LINE2":"2 49178  69.9945 189.8107 0003476 277.8821  82.1944 15.00542871 18091","MEAN_ELEMENT_THEORY":"SGP4","DECAY_DATE":null,"LAUNCH_DATE":"2021-09-14","MEAN_MOTION_DOT":"-0.00115131","NORAD_CAT_ID":"49178","OBJECT_NAME":"STARLINK-3086","APOAPSIS":"567.637","OBJECT_ID":"2021-082BA","COUNTRY_CODE":"US","ELEMENT_SET_NO":"999","REV_AT_EPOCH":"1809","MEAN_ANOMALY":"82.1944","GP_ID":"192821005","TLE_LINE1":"1 49178U 21082BA  21365.61680000 -.00115131  00000-0 -92510-2 0  9993","BSTAR":"-0.00925100000000","SEMIMAJOR_AXIS":"6943.358","PERIOD":"95.965","TIME_SYSTEM":"UTC","EPOCH":"2021-12-31T14:48:11.520000"},{"TIME_SYSTEM":"UTC","EPOCH":"2021-12-31T13:38:36.147552","MEAN_ANOMALY":"83.6459","REV_AT_EPOCH":"1712","PERIOD":"91.734","SEMIMAJOR_AXIS":"6737.727","TLE_LINE1":"1 49179U 21082BB  21365.56847393  .00023713  00000-0  19980-3 0  9991","BSTAR":"0.00019980000000","GP_ID":"192821255","OBJECT_NAME":"STARLINK-3043","APOAPSIS":"361.627","ELEMENT_SET_NO":"999","COUNTRY_CODE":"US","OBJECT_ID":"2021-082BB","DECAY_DATE":null,"MEAN_MOTION_DOT":"0.00023713","LAUNCH_DATE":"2021-09-14","MEAN_ELEMENT_THEORY":"SGP4","TLE_LINE2":"2 49179  69.9966 181.9586 0003020 276.4392  83.6459 15.69757651 17121","NORAD_CAT_ID":"49179","MEAN_MOTION_DDOT":"0.0000000000000","ECCENTRICITY":"0.00030200","RCS_SIZE":"LARGE","CLASSIFICATION_TYPE":"U","MEAN_MOTION":"15.69757651","FILE":"3255242","EPHEMERIS_TYPE":"0","ARG_OF_PERICENTER":"276.4392","REF_FRAME":"TEME","OBJECT_TYPE":"PAYLOAD","INCLINATION":"69.9966","SITE":"AFWTR","RA_OF_ASC_NODE":"181.9586","PERIAPSIS":"357.558","CENTER_NAME":"EARTH"},{"MEAN_ANOMALY":"87.9352","REV_AT_EPOCH":"1829","SEMIMAJOR_AXIS":"6737.679","BSTAR":"0.00018538000000","TLE_LINE1":"1 49180U 21082BC  21365.56734555  .00021999  00000-0  18538-3 0  9990","GP_ID":"192821506","PERIOD":"91.733","TIME_SYSTEM":"UTC","EPOCH":"2021-12-31T13:36:58.655520","MEAN_ELEMENT_THEORY":"SGP4","TLE_LINE2":"2 49180  69.9996 181.9509 0003270 272.1469  87.9352 15.69774708 18296","DECAY_DATE":null,"MEAN_MOTION_DOT":"0.00021999","LAUNCH_DATE":"2021-09-14","NORAD_CAT_ID":"49180","OBJECT_NAME":"STARLINK-3050","APOAPSIS":"361.747","COUNTRY_CODE":"US","OBJECT_ID":"2021-082BC","ELEMENT_SET_NO":"999","EPHEMERIS_TYPE":"0","CLASSIFICATION_TYPE":"U","MEAN_MOTION_DDOT":"0.0000000000000","ECCENTRICITY":"0.00032700","RCS_SIZE":"LARGE","FILE":"3255242","MEAN_MOTION":"15.69774708","PERIAPSIS":"357.340","RA_OF_ASC_NODE":"181.9509","CENTER_NAME":"EARTH","OBJECT_TYPE":"PAYLOAD","ARG_OF_PERICENTER":"272.1469","REF_FRAME":"TEME","SITE":"AFWTR","INCLINATION":"69.9996"},{"SEMIMAJOR_AXIS":"6949.388","BSTAR":"-0.00407370000000","TLE_LINE1":"1 49181U 21082BD  21365.59686789 -.00048691  00000-0 -40737-2 0  9994","GP_ID":"192821743","PERIOD":"96.090","MEAN_ANOMALY":"95.0300","REV_AT_EPOCH":"1812","EPOCH":"2021-12-31T14:19:29.385696","TIME_SYSTEM":"UTC","NORAD_CAT_ID":"49181","MEAN_ELEMENT_THEORY":"SGP4","TLE_LINE2":"2 49181  69.9962 189.8391 0003006 265.0516  95.0300 14.98590399 18125","DECAY_DATE":null,"MEAN_MOTION_DOT":"-0.00048691","LAUNCH_DATE":"2021-09-14","COUNTRY_CODE":"US","OBJECT_ID":"2021-082BD","ELEMENT_SET_NO":"999","OBJECT_NAME":"STARLINK-3059","APOAPSIS":"573.342","EPHEMERIS_TYPE":"0","FILE":"3255242","MEAN_MOTION":"14.98590399","CLASSIFICATION_TYPE":"U","ECCENTRICITY":"0.00030060","MEAN_MOTION_DDOT":"0.0000000000000","RCS_SIZE":"LARGE","CENTER_NAME":"EARTH","RA_OF_ASC_NODE":"189.8391","PERIAPSIS":"569.164","SITE":"AFWTR","INCLINATION":"69.9962","OBJECT_TYPE":"PAYLOAD","ARG_OF_PERICENTER":"265.0516","REF_FRAME":"TEME"}];
